IRIDIUM 171             
1 43929U 19002H   25201.55156013  .00000074  00000+0  19502-4 0  9996
2 43929  86.4010 132.4973 0001992  91.2757 268.8667 14.34218431341427
IRIDIUM 170             
1 43930U 19002J   25201.34682530  .00000790  00000+0  12144-3 0  9992
2 43930  86.6126 132.3302 0002295  79.1940 280.9535 14.72248979350432
IRIDIUM 167             
1 43931U 19002K   25201.89406102  .00000009  00000+0 -39894-5 0  9999
2 43931  86.4002 132.1043 0001684  85.5800 274.5588 14.34217675341479
IRIDIUM 181             
1 56726U 23068S   25201.50397482  .00000171  00000+0  44881-4 0  9990
2 56726  86.4525 195.3244 0002310 103.7773 256.3685 14.43310880114597
IRIDIUM 177             
1 56727U 23068T   25201.53389110  .00000828  00000+0  10543-3 0  9999
2 56727  86.1993 126.3075 0002248  90.4471 269.7007 14.80228003117301
IRIDIUM 174             
1 56728U 23068U   25201.53837262  .00000768  00000+0  11788-3 0  9991
2 56728  86.6133 132.3639 0002976  76.4837 283.6711 14.72255416117221
IRIDIUM 178             
1 56729U 23068V   25201.86099836  .00000960  00000+0  12288-3 0  9995
2 56729  86.6589 163.7855 0002693  84.5573 275.5956 14.80232751117359
IRIDIUM 179             
1 56730U 23068W   25201.45002031  .00001001  00000+0  12823-3 0  9995
2 56730  86.6828 171.9261 0002430  87.4646 272.6854 14.80236832117293
